[{"OBJECT_NAME":"STARLINK-36423","OBJECT_ID":"2026-008D","EPOCH":"2026-03-09T10:23:06.144864","MEAN_MOTION":15.27585154,"ECCENTRICITY":0.00016452,"INCLINATION":42.9989,"RA_OF_ASC_NODE":206.6197,"ARG_OF_PERICENTER":267.6574,"MEAN_ANOMALY":92.4089,"EPHEMERIS_TYPE":0,"CLASSIFICATION_TYPE":"U","NORAD_CAT_ID":67448,"ELEMENT_SET_NO":999,"REV_AT_EPOCH":953,"BSTAR":0.0009336997,"MEAN_MOTION_DOT":0.00025525,"MEAN_MOTION_DDOT":0},{"OBJECT_NAME":"OBJECT P","OBJECT_ID":"2018-099P","EPOCH":"2026-03-09T16:35:55.790016","MEAN_MOTION":15.30834106,"ECCENTRICITY":0.00076856,"INCLINATION":97.4366,"RA_OF_ASC_NODE":131.9195,"ARG_OF_PERICENTER":276.7627,"MEAN_ANOMALY":83.2739,"EPHEMERIS_TYPE":0,"CLASSIFICATION_TYPE":"U","NORAD_CAT_ID":43771,"ELEMENT_SET_NO":999,"REV_AT_EPOCH":39830,"BSTAR":0.00063632878,"MEAN_MOTION_DOT":0.00018926,"MEAN_MOTION_DDOT":0}]
